[{"OBJECT_NAME":"STARLINK-2567","OBJECT_ID":"2021-036A","EPOCH":"2026-03-09T05:01:13.564992","MEAN_MOTION":15.06409165,"ECCENTRICITY":0.00013167,"INCLINATION":53.0552,"RA_OF_ASC_NODE":48.774,"ARG_OF_PERICENTER":114.84,"MEAN_ANOMALY":245.2726,"EPHEMERIS_TYPE":0,"CLASSIFICATION_TYPE":"U","NORAD_CAT_ID":48276,"ELEMENT_SET_NO":999,"REV_AT_EPOCH":26873,"BSTAR":-4.4168655e-5,"MEAN_MOTION_DOT":-9.39e-6,"MEAN_MOTION_DDOT":0},{"OBJECT_NAME":"JILIN-1 KUANFU-01B","OBJECT_ID":"2021-061A","EPOCH":"2026-03-09T22:54:34.499808","MEAN_MOTION":15.09454544,"ECCENTRICITY":0.00089006,"INCLINATION":97.5272,"RA_OF_ASC_NODE":146.9765,"ARG_OF_PERICENTER":57.5197,"MEAN_ANOMALY":302.6891,"EPHEMERIS_TYPE":0,"CLASSIFICATION_TYPE":"U","NORAD_CAT_ID":49003,"ELEMENT_SET_NO":999,"REV_AT_EPOCH":25837,"BSTAR":0.00023291265,"MEAN_MOTION_DOT":3.668e-5,"MEAN_MOTION_DDOT":0}]
